start=new Date('2023-03-02T00:00:00.000Z').valueOf();
sats=[{"EPHEMERIS_TYPE":"0","MEAN_ELEMENT_THEORY":"SGP4","MEAN_MOTION":"15.01250778","DECAY_DATE":null,"MEAN_MOTION_DOT":"0.00000254","ELEMENT_SET_NO":"999","OBJECT_NAME":"STARLINK-4350","NORAD_CAT_ID":"53045","RA_OF_ASC_NODE":"243.3416","REF_FRAME":"TEME","CLASSIFICATION_TYPE":"U","OBJECT_ID":"2022-077C","REV_AT_EPOCH":"3529","TIME_SYSTEM":"UTC","RCS_SIZE":"LARGE","MEAN_ANOMALY":"124.8719","SITE":"AFWTR","ARG_OF_PERICENTER":"235.2438","COUNTRY_CODE":"US","PERIOD":"95.920","TLE_LINE2":"2 53045  97.6535 243.3416 0000709 235.2438 124.8719 15.01250778 35297","APOAPSIS":"563.532","ECCENTRICITY":"0.00007090","TLE_LINE1":"1 53045U 22077C   23060.74809257  .00000254  00000-0  24391-4 0  9992","GP_ID":"227320168","SEMIMAJOR_AXIS":"6941.175","EPOCH":"2023-03-01T17:57:15.198048","FILE":"3848834","CENTER_NAME":"EARTH","BSTAR":"0.00002439100000","PERIAPSIS":"562.548","OBJECT_TYPE":"PAYLOAD","LAUNCH_DATE":"2022-07-11","INCLINATION":"97.6535","MEAN_MOTION_DDOT":"0.0000000000000"},{"PERIAPSIS":"561.332","BSTAR":"-0.00007450500000","LAUNCH_DATE":"2022-07-11","OBJECT_TYPE":"PAYLOAD","INCLINATION":"97.6535","MEAN_MOTION_DDOT":"0.0000000000000","TLE_LINE1":"1 53046U 22077D   23060.74068379 -.00001016  00000-0 -74505-4 0  9996","TLE_LINE2":"2 53046  97.6535 243.3500 0002454 240.3569 119.7411 15.01252309 35297","APOAPSIS":"564.739","ECCENTRICITY":"0.00024540","GP_ID":"227320914","SEMIMAJOR_AXIS":"6941.171","EPOCH":"2023-03-01T17:46:35.079456","CENTER_NAME":"EARTH","FILE":"3848834","TIME_SYSTEM":"UTC","MEAN_ANOMALY":"119.7411","RCS_SIZE":"LARGE","ARG_OF_PERICENTER":"240.3569","SITE":"AFWTR","COUNTRY_CODE":"US","PERIOD":"95.920","EPHEMERIS_TYPE":"0","MEAN_ELEMENT_THEORY":"SGP4","DECAY_DATE":null,"MEAN_MOTION":"15.01252309","MEAN_MOTION_DOT":"-0.00001016","OBJECT_NAME":"STARLINK-4331","ELEMENT_SET_NO":"999","CLASSIFICATION_TYPE":"U","OBJECT_ID":"2022-077D","REF_FRAME":"TEME","RA_OF_ASC_NODE":"243.3500","NORAD_CAT_ID":"53046","REV_AT_EPOCH":"3529"},{"TIME_SYSTEM":"UTC","RCS_SIZE":"LARGE","MEAN_ANOMALY":"114.6081","SITE":"AFWTR","ARG_OF_PERICENTER":"245.4923","COUNTRY_CODE":"US","PERIOD":"95.920","EPHEMERIS_TYPE":"0","MEAN_ELEMENT_THEORY":"SGP4","MEAN_MOTION":"15.01257437","DECAY_DATE":null,"MEAN_MOTION_DOT":"0.00002283","ELEMENT_SET_NO":"999","OBJECT_NAME":"STARLINK-4352","NORAD_CAT_ID":"53047","REF_FRAME":"TEME","RA_OF_ASC_NODE":"243.4133","CLASSIFICATION_TYPE":"U","OBJECT_ID":"2022-077E","REV_AT_EPOCH":"3530","BSTAR":"0.00018229000000","PERIAPSIS":"561.553","OBJECT_TYPE":"PAYLOAD","LAUNCH_DATE":"2022-07-11","INCLINATION":"97.6541","MEAN_MOTION_DDOT":"0.0000000000000","APOAPSIS":"564.486","TLE_LINE2":"2 53047  97.6541 243.4133 0002113 245.4923 114.6081 15.01257437 35306","ECCENTRICITY":"0.00021130","TLE_LINE1":"1 53047U 22077E   23060.80547981  .00002283  00000-0  18229-3 0  9990","GP_ID":"227319667","SEMIMAJOR_AXIS":"6941.155","EPOCH":"2023-03-01T19:19:53.455584","FILE":"3848834","CENTER_NAME":"EARTH"},{"OBJECT_TYPE":"PAYLOAD","LAUNCH_DATE":"2022-07-11","BSTAR":"0.00006404800000","PERIAPSIS":"561.359","INCLINATION":"97.6538","MEAN_MOTION_DDOT":"0.0000000000000","TLE_LINE2":"2 53048  97.6538 243.4140 0002426 247.8697 112.2270 15.01249851 35295","ECCENTRICITY":"0.00024260","APOAPSIS":"564.727","TLE_LINE1":"1 53048U 22077F   23060.80572789  .00000763  00000-0  64048-4 0  9997","GP_ID":"227319917","SEMIMAJOR_AXIS":"6941.178","FILE":"3848834","CENTER_NAME":"EARTH","EPOCH":"2023-03-01T19:20:14.889696","RCS_SIZE":"LARGE","MEAN_ANOMALY":"112.2270","TIME_SYSTEM":"UTC","SITE":"AFWTR","ARG_OF_PERICENTER":"247.8697","PERIOD":"95.920","COUNTRY_CODE":"US","EPHEMERIS_TYPE":"0","MEAN_MOTION":"15.01249851","DECAY_DATE":null,"MEAN_ELEMENT_THEORY":"SGP4","ELEMENT_SET_NO":"999","OBJECT_NAME":"STARLINK-4355","MEAN_MOTION_DOT":"0.00000763","REV_AT_EPOCH":"3529","REF_FRAME":"TEME","NORAD_CAT_ID":"53048","RA_OF_ASC_NODE":"243.4140","OBJECT_ID":"2022-077F","CLASSIFICATION_TYPE":"U"},{"GP_ID":"227320667","TLE_LINE1":"1 53049U 22077G   23060.46692053 -.00001120  00000-0 -82640-4 0  9995","ECCENTRICITY":"0.00020070","TLE_LINE2":"2 53049  97.6559 243.0789 0002007 254.2305 105.8698 15.01246622 35247","APOAPSIS":"564.446","EPOCH":"2023-03-01T11:12:21.933792","CENTER_NAME":"EARTH","FILE":"3848834","SEMIMAJOR_AXIS":"6941.188","PERIAPSIS":"561.660","BSTAR":"-0.00008264000000","LAUNCH_DATE":"2022-07-11","OBJECT_TYPE":"PAYLOAD","MEAN_MOTION_DDOT":"0.0000000000000","INCLINATION":"97.6559","MEAN_ELEMENT_THEORY":"SGP4","MEAN_MOTION":"15.01246622","DECAY_DATE":null,"EPHEMERIS_TYPE":"0","CLASSIFICATION_TYPE":"U","OBJECT_ID":"2022-077G","REF_FRAME":"TEME","NORAD_CAT_ID":"53049","RA_OF_ASC_NODE":"243.0789","REV_AT_EPOCH":"3524","MEAN_MOTION_DOT":"-0.00001120","OBJECT_NAME":"STARLINK-4345","ELEMENT_SET_NO":"999","SITE":"AFWTR","ARG_OF_PERICENTER":"254.2305","TIME_SYSTEM":"UTC","MEAN_ANOMALY":"105.8698","RCS_SIZE":"LARGE","COUNTRY_CODE":"US","PERIOD":"95.920"},{"MEAN_MOTION":"15.01247651","DECAY_DATE":null,"MEAN_ELEMENT_THEORY":"SGP4","EPHEMERIS_TYPE":"0","REV_AT_EPOCH":"3528","CLASSIFICATION_TYPE":"U","OBJECT_ID":"2022-077H","RA_OF_ASC_NODE":"243.3446","NORAD_CAT_ID":"53050","REF_FRAME":"TEME","OBJECT_NAME":"STARLINK-4343","ELEMENT_SET_NO":"999","MEAN_MOTION_DOT":"-0.00002764","ARG_OF_PERICENTER":"220.3587","SITE":"AFWTR","MEAN_ANOMALY":"139.7458","RCS_SIZE":"LARGE","TIME_SYSTEM":"UTC","PERIOD":"95.920","COUNTRY_CODE":"US","GP_ID":"227320415","TLE_LINE1":"1 53050U 22077H   23060.73698228 -.00002764  00000-0 -21076-3 0  9997","TLE_LINE2":"2 53050  97.6544 243.3446 0002415 220.3587 139.7458 15.01247651 35282","APOAPSIS":"564.726","ECCENTRICITY":"0.00024150","CENTER_NAME":"EARTH","FILE":"3848834","EPOCH":"2023-03-01T17:41:15.268992","SEMIMAJOR_AXIS":"6941.185","LAUNCH_DATE":"2022-07-11","OBJECT_TYPE":"PAYLOAD","PERIAPSIS":"561.374","BSTAR":"-0.00021076000000","MEAN_MOTION_DDOT":"0.0000000000000","INCLINATION":"97.6544"},{"GP_ID":"227319168","TLE_LINE2":"2 53051  97.6565 243.0778 0000445 263.4498  96.6675 15.01251553 35245","APOAPSIS":"563.347","ECCENTRICITY":"0.00004450","TLE_LINE1":"1 53051U 22077J   23060.46482455 -.00000659  00000-0 -46746-4 0  9994","FILE":"3848834","CENTER_NAME":"EARTH","EPOCH":"2023-03-01T11:09:20.841120","SEMIMAJOR_AXIS":"6941.173","OBJECT_TYPE":"PAYLOAD","LAUNCH_DATE":"2022-07-11","BSTAR":"-0.00004674600000","PERIAPSIS":"562.729","MEAN_MOTION_DDOT":"0.0000000000000","INCLINATION":"97.6565","DECAY_DATE":null,"MEAN_MOTION":"15.01251553","MEAN_ELEMENT_THEORY":"SGP4","EPHEMERIS_TYPE":"0","REV_AT_EPOCH":"3524","RA_OF_ASC_NODE":"243.0778","REF_FRAME":"TEME","NORAD_CAT_ID":"53051","OBJECT_ID":"2022-077J","CLASSIFICATION_TYPE":"U","ELEMENT_SET_NO":"999","OBJECT_NAME":"STARLINK-4336","MEAN_MOTION_DOT":"-0.00000659","SITE":"AFWTR","ARG_OF_PERICENTER":"263.4498","RCS_SIZE":"LARGE","MEAN_ANOMALY":"96.6675","TIME_SYSTEM":"UTC","PERIOD":"95.920","COUNTRY_CODE":"US"},{"TLE_LINE1":"1 53052U 22077K   23060.80178280  .00000942  00000-0  77942-4 0  9996","APOAPSIS":"564.595","TLE_LINE2":"2 53052  97.6544 243.4098 0002252 242.8144 117.2851 15.01253578 35299","ECCENTRICITY":"0.00022520","GP_ID":"227319418","SEMIMAJOR_AXIS":"6941.167","EPOCH":"2023-03-01T19:14:34.033920","CENTER_NAME":"EARTH","FILE":"3848834","PERIAPSIS":"561.468","BSTAR":"0.00007794200000","LAUNCH_DATE":"2022-07-11","OBJECT_TYPE":"PAYLOAD","INCLINATION":"97.6544","MEAN_MOTION_DDOT":"0.0000000000000","EPHEMERIS_TYPE":"0","MEAN_ELEMENT_THEORY":"SGP4","MEAN_MOTION":"15.01253578","DECAY_DATE":null,"MEAN_MOTION_DOT":"0.00000942","OBJECT_NAME":"STARLINK-4341","ELEMENT_SET_NO":"999","OBJECT_ID":"2022-077K","CLASSIFICATION_TYPE":"U","RA_OF_ASC_NODE":"243.4098","REF_FRAME":"TEME","NORAD_CAT_ID":"53052","REV_AT_EPOCH":"3529","TIME_SYSTEM":"UTC","MEAN_ANOMALY":"117.2851","RCS_SIZE":"LARGE","ARG_OF_PERICENTER":"242.8144","SITE":"AFWTR","COUNTRY_CODE":"US","PERIOD":"95.920"},{"REV_AT_EPOCH":"3524","OBJECT_ID":"2022-077L","CLASSIFICATION_TYPE":"U","NORAD_CAT_ID":"53053","REF_FRAME":"TEME","RA_OF_ASC_NODE":"243.0809","OBJECT_NAME":"STARLINK-4337","ELEMENT_SET_NO":"999","MEAN_MOTION_DOT":"0.00001607","MEAN_MOTION":"15.01258650","DECAY_DATE":null,"MEAN_ELEMENT_THEORY":"SGP4","EPHEMERIS_TYPE":"0","PERIOD":"95.920","COUNTRY_CODE":"US","ARG_OF_PERICENTER":"240.8334","SITE":"AFWTR","MEAN_ANOMALY":"119.2739","RCS_SIZE":"LARGE","TIME_SYSTEM":"UTC","CENTER_NAME":"EARTH","FILE":"3848834","EPOCH":"2023-03-01T11:04:01.130880","SEMIMAJOR_AXIS":"6941.151","GP_ID":"227320169","TLE_LINE1":"1 53053U 22077L   23060.46112420  .00001607  00000-0  12965-3 0  9995","TLE_LINE2":"2 53053  97.6579 243.0809 0001513 240.8334 119.2739 15.01258650 35240","ECCENTRICITY":"0.00015130","APOAPSIS":"564.066","MEAN_MOTION_DDOT":"0.0000000000000","INCLINATION":"97.6579","LAUNCH_DATE":"2022-07-11","OBJECT_TYPE":"PAYLOAD","PERIAPSIS":"561.966","BSTAR":"0.00012965000000"},{"SITE":"AFWTR","ARG_OF_PERICENTER":"223.8554","MEAN_ANOMALY":"136.2602","RCS_SIZE":"LARGE","TIME_SYSTEM":"UTC","PERIOD":"95.920","COUNTRY_CODE":"US","DECAY_DATE":null,"MEAN_MOTION":"15.01249116","MEAN_ELEMENT_THEORY":"SGP4","EPHEMERIS_TYPE":"0","REV_AT_EPOCH":"3524","CLASSIFICATION_TYPE":"U","OBJECT_ID":"2022-077M","REF_FRAME":"TEME","RA_OF_ASC_NODE":"243.0791","NORAD_CAT_ID":"53054","OBJECT_NAME":"STARLINK-4339","ELEMENT_SET_NO":"999","MEAN_MOTION_DOT":"-0.00000922","LAUNCH_DATE":"2022-07-11","OBJECT_TYPE":"PAYLOAD","PERIAPSIS":"562.448","BSTAR":"-0.00006719400000","MEAN_MOTION_DDOT":"0.0000000000000","INCLINATION":"97.6557","GP_ID":"227320915","TLE_LINE1":"1 53054U 22077M   23060.46667650 -.00000922  00000-0 -67194-4 0  9992","TLE_LINE2":"2 53054  97.6557 243.0791 0000861 223.8554 136.2602 15.01249116 35242","APOAPSIS":"563.643","ECCENTRICITY":"0.00008610","CENTER_NAME":"EARTH","FILE":"3848834","EPOCH":"2023-03-01T11:12:00.849600","SEMIMAJOR_AXIS":"6941.180"}];
